{
  "type": "FeatureCollection",
  "features": [
    {
      "type": "Feature",
      "properties": {
        "norad_id": 66658,
        "name": "2025-274J",
        "group": "last-30-days",
        "lat": 2.2468949244683003,
        "lon": 97.25590219557171,
        "alt_km": 592.4660969389897,
        "timestamp": "2025-12-15T19:00:44.077695+00:00",
        "meta_object_name": "2025-274J",
        "meta_object_id": "2025-274J",
        "meta_epoch": "2025-12-14T08:25:53.036256",
        "meta_mean_motion": 14.92638037,
        "meta_eccentricity": 0.00111631,
        "meta_inclination": 97.7387,
        "meta_ra_of_asc_node": 275.5339,
        "meta_arg_of_pericenter": 272.7846,
        "meta_mean_anomaly": 87.2096,
        "meta_ephemeris_type": 0,
        "meta_classification_type": "U",
        "meta_norad_cat_id": 66658,
        "meta_element_set_no": 999,
        "meta_rev_at_epoch": 264,
        "meta_bstar": 0.00039942717,
        "meta_mean_motion_dot": 4.063e-05,
        "meta_mean_motion_ddot": 0,
        "tle_line1": "1 66658U 25274J   25348.35130829  .00004063  00000+0  39943-3 0  9997",
        "tle_line2": "2 66658  97.7387 275.5339 0011163 272.7846  87.2096 14.92638037  2643"
      },
      "geometry": {
        "type": "Point",
        "coordinates": [
          97.25590219557171,
          2.2468949244683003
        ]
      }
    },
    {
      "type": "Feature",
      "properties": {
        "norad_id": 66659,
        "name": "JACK K",
        "group": "last-30-days",
        "lat": -10.373364445194257,
        "lon": 95.52987219335982,
        "alt_km": 591.8328382370883,
        "timestamp": "2025-12-15T19:00:44.077706+00:00",
        "meta_object_name": "JACK K",
        "meta_object_id": "2025-274K",
        "meta_epoch": "2025-12-14T08:22:43.259520",
        "meta_mean_motion": 14.92822234,
        "meta_eccentricity": 0.00118757,
        "meta_inclination": 97.7386,
        "meta_ra_of_asc_node": 275.5374,
        "meta_arg_of_pericenter": 274.3397,
        "meta_mean_anomaly": 85.6466,
        "meta_ephemeris_type": 0,
        "meta_classification_type": "U",
        "meta_norad_cat_id": 66659,
        "meta_element_set_no": 999,
        "meta_rev_at_epoch": 264,
        "meta_bstar": 0.00038564877,
        "meta_mean_motion_dot": 3.94e-05,
        "meta_mean_motion_ddot": 0,
        "tle_line1": "1 66659U 25274K   25348.34911180  .00003940  00000+0  38565-3 0  9996",
        "tle_line2": "2 66659  97.7386 275.5374 0011875 274.3397  85.6466 14.92822234  2648"
      },
      "geometry": {
        "type": "Point",
        "coordinates": [
          95.52987219335982,
          -10.373364445194257
        ]
      }
    },
    {
      "type": "Feature",
      "properties": {
        "norad_id": 66660,
        "name": "K-HERO",
        "group": "last-30-days",
        "lat": -20.558302451723286,
        "lon": 94.03791886263686,
        "alt_km": 590.8405724124641,
        "timestamp": "2025-12-15T19:00:44.077721+00:00",
        "meta_object_name": "K-HERO",
        "meta_object_id": "2025-274L",
        "meta_epoch": "2025-12-14T06:43:39.323136",
        "meta_mean_motion": 14.92970721,
        "meta_eccentricity": 0.00125171,
        "meta_inclination": 97.7389,
        "meta_ra_of_asc_node": 275.4745,
        "meta_arg_of_pericenter": 275.0183,
        "meta_mean_anomaly": 84.9607,
        "meta_ephemeris_type": 0,
        "meta_classification_type": "U",
        "meta_norad_cat_id": 66660,
        "meta_element_set_no": 999,
        "meta_rev_at_epoch": 263,
        "meta_bstar": 0.00036576832,
        "meta_mean_motion_dot": 3.748e-05,
        "meta_mean_motion_ddot": 0,
        "tle_line1": "1 66660U 25274L   25348.28031624  .00003748  00000+0  36577-3 0  9994",
        "tle_line2": "2 66660  97.7389 275.4745 0012517 275.0183  84.9607 14.92970721  2632"
      },
      "geometry": {
        "type": "Point",
        "coordinates": [
          94.03791886263686,
          -20.558302451723286
        ]
      }
    },
    {
      "type": "Feature",
      "properties": {
        "norad_id": 66661,
        "name": "SNUGLITE-III",
        "group": "last-30-days",
        "lat": -30.53187138261435,
        "lon": 92.36457552466959,
        "alt_km": 589.7122302865209,
        "timestamp": "2025-12-15T19:00:44.077736+00:00",
        "meta_object_name": "SNUGLITE-III",
        "meta_object_id": "2025-274M",
        "meta_epoch": "2025-12-14T21:09:40.112064",
        "meta_mean_motion": 14.93109567,
        "meta_eccentricity": 0.0013166,
        "meta_inclination": 97.739,
        "meta_ra_of_asc_node": 276.0694,
        "meta_arg_of_pericenter": 274.0765,
        "meta_mean_anomaly": 85.895,
        "meta_ephemeris_type": 0,
        "meta_classification_type": "U",
        "meta_norad_cat_id": 66661,
        "meta_element_set_no": 999,
        "meta_rev_at_epoch": 272,
        "meta_bstar": 0.00023282468,
        "meta_mean_motion_dot": 2.373e-05,
        "meta_mean_motion_ddot": 0,
        "tle_line1": "1 66661U 25274M   25348.88171426  .00002373  00000+0  23282-3 0  9998",
        "tle_line2": "2 66661  97.7390 276.0694 0013166 274.0765  85.8950 14.93109567  2725"
      },
      "geometry": {
        "type": "Point",
        "coordinates": [
          92.36457552466959,
          -30.53187138261435
        ]
      }
    },
    {
      "type": "Feature",
      "properties": {
        "norad_id": 66662,
        "name": "2025-274N",
        "group": "last-30-days",
        "lat": -34.43178625733816,
        "lon": 91.61761990601468,
        "alt_km": 589.0112680818429,
        "timestamp": "2025-12-15T19:00:44.077747+00:00",
        "meta_object_name": "2025-274N",
        "meta_object_id": "2025-274N",
        "meta_epoch": "2025-12-14T21:08:39.316704",
        "meta_mean_motion": 14.93163605,
        "meta_eccentricity": 0.00135974,
        "meta_inclination": 97.7391,
        "meta_ra_of_asc_node": 276.0705,
        "meta_arg_of_pericenter": 273.6318,
        "meta_mean_anomaly": 86.3346,
        "meta_ephemeris_type": 0,
        "meta_classification_type": "U",
        "meta_norad_cat_id": 66662,
        "meta_element_set_no": 999,
        "meta_rev_at_epoch": 272,
        "meta_bstar": 0.00026475301,
        "meta_mean_motion_dot": 2.711e-05,
        "meta_mean_motion_ddot": 0,
        "tle_line1": "1 66662U 25274N   25348.88101061  .00002711  00000+0  26475-3 0  9990",
        "tle_line2": "2 66662  97.7391 276.0705 0013597 273.6318  86.3346 14.93163605  2725"
      },
      "geometry": {
        "type": "Point",
        "coordinates": [
          91.61761990601468,
          -34.43178625733816
        ]
      }
    },
    {
      "type": "Feature",
      "properties": {
        "norad_id": 66663,
        "name": "KSLV-II R/B",
        "group": "last-30-days",
        "lat": 36.680700581357,
        "lon": 102.9184776844635,
        "alt_km": 608.4186523049839,
        "timestamp": "2025-12-15T19:00:44.077758+00:00",
        "meta_object_name": "KSLV-II R/B",
        "meta_object_id": "2025-274P",
        "meta_epoch": "2025-12-14T16:42:44.074080",
        "meta_mean_motion": 14.97324837,
        "meta_eccentricity": 0.00530081,
        "meta_inclination": 97.7404,
        "meta_ra_of_asc_node": 276.0184,
        "meta_arg_of_pericenter": 312.9926,
        "meta_mean_anomaly": 46.6859,
        "meta_ephemeris_type": 0,
        "meta_classification_type": "U",
        "meta_norad_cat_id": 66663,
        "meta_element_set_no": 999,
        "meta_rev_at_epoch": 270,
        "meta_bstar": 0.00039214597,
        "meta_mean_motion_dot": 4.62e-05,
        "meta_mean_motion_ddot": 0,
        "tle_line1": "1 66663U 25274P   25348.69634345  .00004620  00000+0  39215-3 0  9993",
        "tle_line2": "2 66663  97.7404 276.0184 0053008 312.9926  46.6859 14.97324837  2701"
      },
      "geometry": {
        "type": "Point",
        "coordinates": [
          102.9184776844635,
          36.680700581357
        ]
      }
    },
    {
      "type": "Feature",
      "properties": {
        "norad_id": 66664,
        "name": "SOYUZ-MS 28",
        "group": "last-30-days",
        "lat": 24.354840756906725,
        "lon": -73.65537401929761,
        "alt_km": 415.54146304026926,
        "timestamp": "2025-12-15T19:00:44.077771+00:00",
        "meta_object_name": "SOYUZ-MS 28",
        "meta_object_id": "2025-275A",
        "meta_epoch": "2025-12-14T20:42:23.988960",
        "meta_mean_motion": 15.4959536,
        "meta_eccentricity": 0.00032074,
        "meta_inclination": 51.6306,
        "meta_ra_of_asc_node": 131.9662,
        "meta_arg_of_pericenter": 249.8734,
        "meta_mean_anomaly": 110.1909,
        "meta_ephemeris_type": 0,
        "meta_classification_type": "U",
        "meta_norad_cat_id": 66664,
        "meta_element_set_no": 999,
        "meta_rev_at_epoch": 128,
        "meta_bstar": 0.00013765617,
        "meta_mean_motion_dot": 7.299e-05,
        "meta_mean_motion_ddot": 0,
        "tle_line1": "1 66664U 25275A   25348.86277765  .00007299  00000+0  13766-3 0  9991",
        "tle_line2": "2 66664  51.6306 131.9662 0003207 249.8734 110.1909 15.49595360  1287"
      },
      "geometry": {
        "type": "Point",
        "coordinates": [
          -73.65537401929761,
          24.354840756906725
        ]
      }
    }
  ]
}